NORAD_CAT_ID,OBJECT_NAME,OBJECT_TYPE,EPOCH,MEAN_MOTION,ECCENTRICITY,INCLINATION,RA_OF_ASC_NODE,ARG_OF_PERICENTER,MEAN_ANOMALY,BSTAR,MEAN_MOTION_DOT,MEAN_MOTION_DDOT,TLE_LINE0,TLE_LINE1,TLE_LINE2,SEMIMAJOR_AXIS,PERIOD,APOGEE,PERIGEE,DECAYED
55279.0,STARLINK-5323,PAYLOAD,2023-06-25 23:05:02,14.98331544,0.0003155,70.0,14.8768,268.8516,91.2281,3.7595e-05,3.56e-06,0.0,0 STARLINK-5323,1 55279U 23010L   23176.96183649  .00000356  00000-0  37595-4 0  9996,2 55279  70.0000  14.8768 0003155 268.8516  91.2281 14.98331544 24518,6950.188,96.107,574.246,569.86,0.0
55279.0,STARLINK-5323,PAYLOAD,2023-06-26 16:42:31,14.98322932,0.0003136,70.0,13.025,268.1706,91.9094,0.00010877,1.205e-05,0.0,0 STARLINK-5323,1 55279U 23010L   23177.69620015  .00001205  00000-0  10877-3 0  9997,2 55279  70.0000  13.0250 0003136 268.1706  91.9094 14.98322932 24620,6950.215,96.107,574.259,569.9,0.0
55279.0,STARLINK-5323,PAYLOAD,2023-06-27 19:56:49,14.98293811,0.0003059,70.0001,10.1639,270.2676,89.8132,0.00064333,7.584e-05,0.0,0 STARLINK-5323,1 55279U 23010L   23178.83112479  .00007584  00000-0  64333-3 0  9996,2 55279  70.0001  10.1639 0003059 270.2676  89.8132 14.98293811 24794,6950.305,96.109,574.296,570.044,0.0
55279.0,STARLINK-5323,PAYLOAD,2023-06-27 23:09:04,14.98331547,0.0003198,70.0001,9.8272,268.7214,91.3578,1.6706e-05,1.06e-06,0.0,0 STARLINK-5323,1 55279U 23010L   23178.96463709  .00000106  00000-0  16706-4 0  9990,2 55279  70.0001   9.8272 0003198 268.7214  91.3578 14.98331547 24810,6950.188,96.107,574.276,569.83,0.0
55279.0,STARLINK-5323,PAYLOAD,2023-06-28 23:11:05,14.98331049,0.0003088,70.0004,7.3029,267.2651,92.8155,3.9494e-05,3.78e-06,0.0,0 STARLINK-5323,1 55279U 23010L   23179.96603623  .00000378  00000-0  39494-4 0  9992,2 55279  70.0004   7.3029 0003088 267.2651  92.8155 14.98331049 24963,6950.19,96.107,574.201,569.908,0.0
55279.0,STARLINK-5323,PAYLOAD,2023-07-01 18:28:44,14.98328863,0.0003156,70.0002,0.2327,270.0635,90.0162,-3.1645e-05,-4.71e-06,0.0,0 STARLINK-5323,1 55279U 23010L   23182.76995678 -.00000471  00000-0 -31645-4 0  9994,2 55279  70.0002   0.2327 0003156 270.0635  90.0162 14.98328863 25389,6950.196,96.107,574.255,569.868,0.0
55279.0,STARLINK-5323,PAYLOAD,2023-07-02 21:43:00,14.98332776,0.0003149,70.0002,357.3705,269.5172,90.5626,4.9247e-05,4.95e-06,0.0,0 STARLINK-5323,1 55279U 23010L   23183.90487152  .00000495  00000-0  49247-4 0  9995,2 55279  70.0002 357.3705 0003149 269.5172  90.5626 14.98332776 25553,6950.184,96.107,574.238,569.861,0.0
55279.0,STARLINK-5323,PAYLOAD,2023-07-03 21:45:01,14.98330534,0.0003111,70.0005,354.8465,266.5044,93.5759,4.1204e-05,3.99e-06,0.0,0 STARLINK-5323,1 55279U 23010L   23184.90627255  .00000399  00000-0  41204-4 0  9994,2 55279  70.0005 354.8465 0003111 266.5044  93.5759 14.98330534 25702,6950.191,96.107,574.218,569.894,0.0
55279.0,STARLINK-5323,PAYLOAD,2023-07-04 21:47:02,14.98331208,0.0003038,70.0007,352.3219,265.6651,94.4161,-1.1757e-05,-2.33e-06,0.0,0 STARLINK-5323,1 55279U 23010L   23185.90767281 -.00000233  00000-0 -11757-4 0  9998,2 55279  70.0007 352.3219 0003038 265.6651  94.4161 14.98331208 25858,6950.189,96.107,574.166,569.943,0.0
55279.0,STARLINK-5323,PAYLOAD,2023-07-05 17:00:40,14.98324988,0.0003115,70.0007,350.301,270.3379,89.7423,-5.8269e-05,-7.88e-06,0.0,0 STARLINK-5323,1 55279U 23010L   23186.70879829 -.00000788  00000-0 -58269-4 0  9993,2 55279  70.0007 350.3010 0003115 270.3379  89.7423 14.98324988 25979,6950.208,96.107,574.238,569.908,0.0
55279.0,STARLINK-5323,PAYLOAD,2023-07-06 17:02:41,14.98328525,0.0003434,70.0,347.7754,268.317,91.7596,-1.7895e-05,-3.07e-06,0.0,0 STARLINK-5323,1 55279U 23010L   23187.71019840 -.00000307  00000-0 -17895-4 0  9991,2 55279  70.0000 347.7754 0003434 268.3170  91.7596 14.98328525 26120,6950.197,96.107,574.449,569.676,0.0
55279.0,STARLINK-5323,PAYLOAD,2023-07-07 10:40:09,14.98332079,0.0003499,69.9999,345.9234,268.6746,91.4012,0.00012098,1.351e-05,0.0,0 STARLINK-5323,1 55279U 23010L   23188.44455191  .00001351  00000-0  12098-3 0  9992,2 55279  69.9999 345.9234 0003499 268.6746  91.4012 14.98332079 26231,6950.186,96.107,574.483,569.62,0.0
55279.0,STARLINK-5323,PAYLOAD,2023-07-08 04:17:37,14.98338273,0.0003397,70.0003,344.0727,268.2638,91.8132,0.00020076,2.304e-05,0.0,0 STARLINK-5323,1 55279U 23010L   23189.17890357  .00002304  00000-0  20076-3 0  9994,2 55279  70.0003 344.0727 0003397 268.2638  91.8132 14.98338273 26341,6950.167,96.106,574.393,569.671,0.0
55279.0,STARLINK-5323,PAYLOAD,2023-07-08 18:42:50,14.98331095,0.0003331,70.0006,342.5586,268.099,91.9787,2.9035e-05,2.53e-06,0.0,0 STARLINK-5323,1 55279U 23010L   23189.77975275  .00000253  00000-0  29035-4 0  9999,2 55279  70.0006 342.5586 0003331 268.0990  91.9787 14.98331095 26439,6950.19,96.107,574.37,569.739,0.0
55279.0,STARLINK-5323,PAYLOAD,2023-07-09 18:44:51,14.98334216,0.000323,70.001,340.0344,266.906,93.1729,-0.00010082,-1.296e-05,0.0,0 STARLINK-5323,1 55279U 23010L   23190.78115222 -.00001296  00000-0 -10082-3 0  9991,2 55279  70.0010 340.0344 0003230 266.9060  93.1729 14.98334216 26586,6950.18,96.107,574.29,569.8,0.0
55279.0,STARLINK-5323,PAYLOAD,2023-07-11 02:47:32,14.98330562,0.000333,70.0009,336.6662,271.6434,88.4343,2.1965e-05,1.69e-06,0.0,0 STARLINK-5323,1 55279U 23010L   23192.11634873  .00000169  00000-0  21965-4 0  9997,2 55279  70.0009 336.6662 0003330 271.6434  88.4343 14.98330562 26788,6950.191,96.107,574.371,569.742,0.0
55279.0,STARLINK-5323,PAYLOAD,2023-07-12 18:50:53,14.98333527,0.0003345,70.0009,332.4581,271.5413,88.5362,7.6718e-06,-1e-08,0.0,0 STARLINK-5323,1 55279U 23010L   23193.78534614 -.00000001  00000-0  76718-5 0  9996,2 55279  70.0009 332.4581 0003345 271.5413  88.5362 14.98333527 27039,6950.182,96.107,574.372,569.722,0.0
55279.0,STARLINK-5323,PAYLOAD,2023-07-13 15:40:39,14.98325756,0.0003095,70.0011,330.2692,264.8125,95.2681,1.3321e-05,6.6e-07,0.0,0 STARLINK-5323,1 55279U 23010L   23194.65323112  .00000066  00000-0  13321-4 0  9992,2 55279  70.0011 330.2692 0003095 264.8125  95.2681 14.98325756 27166,6950.206,96.107,574.222,569.92,0.0
55279.0,STARLINK-5323,PAYLOAD,2023-07-14 10:54:15,14.98344298,0.0003442,70.001,328.2497,268.6453,91.4312,-0.00016569,-2.07e-05,0.0,0 STARLINK-5323,1 55279U 23010L   23195.45434731 -.00002070  00000-0 -16569-3 0  9996,2 55279  70.0010 328.2497 0003442 268.6453  91.4312 14.98344298 27281,6950.149,96.106,574.406,569.621,0.0
55279.0,STARLINK-5323,PAYLOAD,2023-07-14 17:18:47,14.98394858,0.0003289,70.0008,327.5765,263.5209,96.5576,-0.00091435,-0.00011004,0.0,0 STARLINK-5323,1 55279U 23010L   23195.72137763 -.00011004  00000-0 -91435-3 0  9993,2 55279  70.0008 327.5765 0003289 263.5209  96.5576 14.98394858 27320,6949.992,96.103,574.143,569.571,0.0
55279.0,STARLINK-5323,PAYLOAD,2023-07-14 20:31:03,14.98339114,0.0003454,70.0009,327.2398,269.7452,90.3311,9.504e-05,1.041e-05,0.0,0 STARLINK-5323,1 55279U 23010L   23195.85489976  .00001041  00000-0  95040-4 0  9998,2 55279  70.0009 327.2398 0003454 269.7452  90.3311 14.98339114 27347,6950.165,96.106,574.43,569.629,0.0
55279.0,STARLINK-5323,PAYLOAD,2023-07-15 09:20:08,14.98330218,0.000314,70.0013,325.8934,269.4143,90.6656,-2.3142e-06,-1.21e-06,0.0,0 STARLINK-5323,1 55279U 23010L   23196.38898822 -.00000121  00000-0 -23142-5 0  9996,2 55279  70.0013 325.8934 0003140 269.4143  90.6656 14.98330218 27428,6950.192,96.107,574.24,569.875,0.0
55279.0,STARLINK-5323,PAYLOAD,2023-07-16 15:46:42,14.98327754,0.0003261,70.0012,322.6955,270.2924,89.7861,-6.5252e-05,-8.71e-06,0.0,0 STARLINK-5323,1 55279U 23010L   23197.65743151 -.00000871  00000-0 -65252-4 0  9990,2 55279  70.0012 322.6955 0003261 270.2924  89.7861 14.98327754 27615,6950.2,96.107,574.331,569.798,0.0
55279.0,STARLINK-5323,PAYLOAD,2023-07-17 15:48:42,14.98333254,0.0003349,70.0009,320.1711,270.0704,90.0071,2.8171e-05,2.43e-06,0.0,0 STARLINK-5323,1 55279U 23010L   23198.65882530  .00000243  00000-0  28171-4 0  9996,2 55279  70.0009 320.1711 0003349 270.0704  90.0071 14.98333254 27761,6950.183,96.107,574.375,569.72,0.0
55279.0,STARLINK-5323,PAYLOAD,2023-07-18 14:14:35,14.98327672,0.0003389,70.0009,317.8144,270.5914,89.4857,3.8745e-05,3.69e-06,0.0,0 STARLINK-5323,1 55279U 23010L   23199.59346822  .00000369  00000-0  38745-4 0  9996,2 55279  70.0009 317.8144 0003389 270.5914  89.4857 14.98327672 27903,6950.2,96.107,574.421,569.71,0.0
55279.0,STARLINK-5323,PAYLOAD,2023-07-19 17:28:53,14.98319535,0.0003273,70.0018,314.9545,264.1342,95.9444,-3.7243e-05,-5.37e-06,0.0,0 STARLINK-5323,1 55279U 23010L   23200.72839798 -.00000537  00000-0 -37243-4 0  9994,2 55279  70.0018 314.9545 0003273 264.1342  95.9444 14.98319535 28074,6950.225,96.108,574.365,569.815,0.0
55279.0,STARLINK-5323,PAYLOAD,2023-07-20 12:42:29,14.98334101,0.0003477,70.0009,312.9333,268.1643,91.9118,8.8636e-05,9.65e-06,0.0,0 STARLINK-5323,1 55279U 23010L   23201.52950493  .00000965  00000-0  88636-4 0  9994,2 55279  70.0009 312.9333 0003477 268.1643  91.9118 14.98334101 28194,6950.18,96.107,574.462,569.629,0.0
55279.0,STARLINK-5323,PAYLOAD,2023-07-21 17:32:54,14.98334592,0.0003108,70.002,309.9057,267.9003,92.18,0.00014986,1.696e-05,0.0,0 STARLINK-5323,1 55279U 23010L   23202.73118101  .00001696  00000-0  14986-3 0  9998,2 55279  70.0020 309.9057 0003108 267.9003  92.1800 14.98334592 28379,6950.179,96.107,574.204,569.884,0.0
55279.0,STARLINK-5323,PAYLOAD,2023-07-24 06:26:00,14.98328921,0.0003504,70.0009,303.5054,271.9161,88.1597,-1.1728e-05,-2.33e-06,0.0,0 STARLINK-5323,1 55279U 23010L   23205.26806618 -.00000233  00000-0 -11728-4 0  9996,2 55279  70.0009 303.5054 0003504 271.9161  88.1597 14.98328921 29078,6950.196,96.107,574.497,569.626,0.0
55279.0,STARLINK-5323,PAYLOAD,2023-07-25 11:16:26,14.98325488,0.0003401,70.0,300.4755,266.7056,93.3714,-3.8183e-05,-5.49e-06,0.0,0 STARLINK-5323,1 55279U 23010L   23206.46974913 -.00000549  00000-0 -38183-4 0  9997,2 55279  70.0000 300.4755 0003401 266.7056  93.3714 14.98325488 29258,6950.207,96.107,574.436,569.708,0.0
